STARLINK-30172
1 57410U 23102G   26061.16668981  .00070711  00000+0  44569-2 0  9990
2 57410  42.9992 289.5809 0001527 249.7671 215.1698 15.08252467  5823
